     2              NAVIGATION DATA                         RINEX VERSION / TYPE
CCRINEXN V1.6.0 UX  CDDIS               29-JUN-16 15:33     PGM / RUN BY / DATE 
IGS BROADCAST EPHEMERIS FILE                                COMMENT             
    0.4657D-08  0.1490D-07 -0.5960D-07 -0.1192D-06          ION ALPHA           
    0.8192D+05  0.9830D+05 -0.6554D+05 -0.5243D+06          ION BETA            
   -0.931322574615D-09-0.888178419700D-15   405504     1903 DELTA-UTC: A0,A1,T,W
    17                                                      LEAP SECONDS        
                                                            END OF HEADER       
17 16  6 28 16  0  0.0-0.203997362405D-03 0.000000000000D+00 0.000000000000D+00
    0.950000000000D+02 0.425000000000D+01 0.424696278145D-08 0.107890439487D+01
    0.245869159698D-06 0.109765939414D-01 0.927411019802D-05 0.515371338654D+04
    0.230400000000D+06-0.169500708580D-06 0.249034894958D+01 0.502914190292D-07
    0.976881948014D+00 0.214187500000D+03-0.192671815708D+01-0.811676681423D-08
    0.237867059383D-09 0.100000000000D+01 0.190300000000D+04 0.000000000000D+00
    0.200000000000D+01 0.000000000000D+00-0.107102096081D-07 0.950000000000D+02
    0.223200000000D+06 0.000000000000D+00 0.000000000000D+00 0.000000000000D+00
18 16  6 28 16  0  0.0 0.531164929271D-03 0.386535248253D-11 0.000000000000D+00
    0.390000000000D+02-0.445312500000D+02 0.504485299552D-08 0.263616330201D+01
   -0.230036675930D-05 0.172543723602D-01 0.942870974541D-05 0.515369680214D+04
    0.230400000000D+06 0.141561031342D-06-0.177815171342D+01-0.115483999252D-06
    0.924696178382D+00 0.174687500000D+03-0.187525196466D+01-0.801747681723D-08
   -0.218937691062D-09 0.000000000000D+00 0.190300000000D+04 0.000000000000D+00
    0.200000000000D+01 0.000000000000D+00-0.121071934700D-07 0.390000000000D+02
    0.223200000000D+06 0.400000000000D+01 0.000000000000D+00 0.000000000000D+00
19 16  6 28 16  0  0.0-0.525273382664D-03 0.227373675443D-12 0.000000000000D+00
    0.570000000000D+02 0.343750000000D+01 0.428124957708D-08-0.208483825162D+01
    0.204890966415D-06 0.107845328748D-01 0.864081084728D-05 0.515362611771D+04
    0.230400000000D+06 0.210478901863D-06 0.253904023948D+01-0.316649675369D-07
    0.974025072351D+00 0.217750000000D+03 0.802624376344D+00-0.789604293061D-08
    0.421088969249D-09 0.100000000000D+01 0.190300000000D+04 0.000000000000D+00
    0.200000000000D+01 0.000000000000D+00-0.149011611938D-07 0.570000000000D+02
    0.223200000000D+06 0.000000000000D+00 0.000000000000D+00 0.000000000000D+00
20 16  6 28 16  0  0.0 0.421141739935D-03 0.227373675443D-11 0.000000000000D+00
    0.430000000000D+02-0.455625000000D+02 0.518914472013D-08 0.259611251976D+00
   -0.219419598579D-05 0.456386432052D-02 0.929087400436D-05 0.515375672150D+04
    0.230400000000D+06-0.232830643654D-06-0.182993478120D+01-0.707805156708D-07
    0.925988600673D+00 0.185437500000D+03 0.138993420226D+01-0.837892044424D-08
   -0.278225874939D-09 0.000000000000D+00 0.190300000000D+04 0.000000000000D+00
    0.200000000000D+01 0.000000000000D+00-0.838190317154D-08 0.430000000000D+02
    0.223200000000D+06 0.400000000000D+01 0.000000000000D+00 0.000000000000D+00
21 16  6 28 16  0  0.0-0.527043361217D-03-0.102318153950D-11 0.000000000000D+00
    0.320000000000D+02-0.253437500000D+02 0.513414242907D-08-0.274166299103D+01
   -0.132247805595D-05 0.233579583000D-01 0.499375164509D-05 0.515359261704D+04
    0.230400000000D+06 0.357627868652D-06-0.281998082242D+01 0.111758708954D-07
    0.936886210991D+00 0.266000000000D+03-0.177975746643D+01-0.813962476233D-08
    0.964325882329D-10 0.000000000000D+00 0.190300000000D+04 0.000000000000D+00
    0.200000000000D+01 0.000000000000D+00-0.102445483208D-07 0.320000000000D+02
    0.223200000000D+06 0.400000000000D+01 0.000000000000D+00 0.000000000000D+00
22 16  6 28 16  0  0.0 0.309442635626D-03-0.886757334229D-11 0.000000000000D+00
    0.270000000000D+02-0.299375000000D+02 0.529557772493D-08 0.619156039843D+00
   -0.148452818394D-05 0.766297208611D-02 0.996887683868D-05 0.515378964806D+04
    0.230400000000D+06-0.150874257088D-06-0.177756932281D+01-0.465661287308D-07
    0.922605607004D+00 0.171000000000D+03-0.189992698050D+01-0.845392356842D-08
   -0.358586365133D-09 0.000000000000D+00 0.190300000000D+04 0.000000000000D+00
    0.200000000000D+01 0.000000000000D+00-0.176951289177D-07 0.270000000000D+02
    0.223560000000D+06 0.400000000000D+01 0.000000000000D+00 0.000000000000D+00
23 16  6 28 16  0  0.0-0.180002301931D-03-0.159161572810D-11 0.000000000000D+00
    0.250000000000D+02 0.848125000000D+02 0.484448750664D-08-0.232042996722D+00
    0.458210706711D-05 0.110799957765D-01 0.885501503944D-05 0.515365836525D+04
    0.230400000000D+06 0.156462192535D-06-0.699705223611D+00 0.152736902237D-06
    0.945822598222D+00 0.202406250000D+03-0.255890762521D+01-0.843499420851D-08
    0.333585323739D-09 0.100000000000D+01 0.190300000000D+04 0.000000000000D+00
    0.200000000000D+01 0.000000000000D+00-0.200234353542D-07 0.250000000000D+02
    0.223200000000D+06 0.400000000000D+01 0.000000000000D+00 0.000000000000D+00
25 16  6 28 16  0  0.0-0.198631547391D-03-0.704858393874D-11 0.000000000000D+00
    0.820000000000D+02-0.515312500000D+02 0.419624621907D-08-0.285952681161D+01
   -0.273250043392D-05 0.562495342456D-02 0.798143446445D-05 0.515373776245D+04
    0.230400000000D+06 0.745058059692D-08 0.139881228196D+01-0.175088644028D-06
    0.978310499222D+00 0.233718750000D+03 0.789455266792D+00-0.792175854447D-08
   -0.175364447490D-09 0.000000000000D+00 0.190300000000D+04 0.000000000000D+00
    0.200000000000D+01 0.000000000000D+00 0.558793544769D-08 0.820000000000D+02
    0.223200000000D+06 0.400000000000D+01 0.000000000000D+00 0.000000000000D+00
26 16  6 28 16  0  0.0-0.408796127886D-03-0.106865627458D-10 0.000000000000D+00
    0.250000000000D+02-0.429062500000D+02 0.465126517244D-08 0.262895387055D+01
   -0.221282243729D-05 0.100740382914D-02 0.819377601147D-05 0.515378234482D+04
    0.230400000000D+06-0.502914190292D-07 0.138927272044D+01 0.223517417908D-07
    0.960271493379D+00 0.222468750000D+03 0.184220947873D+00-0.811998108695D-08
   -0.163935399996D-09 0.000000000000D+00 0.190300000000D+04 0.000000000000D+00
    0.200000000000D+01 0.000000000000D+00 0.698491930962D-08 0.250000000000D+02
    0.227700000000D+06 0.400000000000D+01 0.000000000000D+00 0.000000000000D+00
28 16  6 28 16  0  0.0 0.533406157047D-03 0.272848410532D-11 0.000000000000D+00
    0.960000000000D+02-0.593437500000D+02 0.386051794893D-08 0.188751483596D+01
   -0.330433249474D-05 0.197426993400D-01 0.952184200287D-05 0.515363254738D+04
    0.230400000000D+06 0.249594449997D-06 0.147383660346D+01-0.400468707085D-06
    0.989319602915D+00 0.208593750000D+03-0.161495939224D+01-0.761245994665D-08
   -0.225366530278D-09 0.100000000000D+01 0.190300000000D+04 0.000000000000D+00
    0.200000000000D+01 0.000000000000D+00-0.111758708954D-07 0.960000000000D+02
    0.225630000000D+06 0.400000000000D+01 0.000000000000D+00 0.000000000000D+00
29 16  6 28 16  0  0.0 0.656206626445D-03-0.568434188608D-12 0.000000000000D+00
    0.590000000000D+02 0.278125000000D+01 0.408945605654D-08-0.297266347722D+01
   -0.409781932831D-07 0.875893165357D-03 0.866502523422D-05 0.515355525017D+04
    0.230400000000D+06-0.577419996262D-07 0.250010299245D+01-0.223517417908D-07
    0.977871926622D+00 0.219968750000D+03-0.111564846438D+00-0.785032699763D-08
    0.180364655769D-09 0.000000000000D+00 0.190300000000D+04 0.000000000000D+00
    0.200000000000D+01 0.000000000000D+00-0.102445483208D-07 0.590000000000D+02
    0.223200000000D+06 0.400000000000D+01 0.000000000000D+00 0.000000000000D+00
30 16  6 28 16  0  0.0 0.136213842779D-03 0.261479726760D-11 0.000000000000D+00
    0.130000000000D+02 0.119062500000D+02 0.513485674454D-08-0.162745551266D+01
    0.337138772011D-06 0.223905709572D-02 0.414252281189D-05 0.515358572388D+04
    0.230400000000D+06 0.111758708954D-07 0.416869908671D+00-0.149011611938D-07
    0.952063453562D+00 0.297187500000D+03 0.305856742977D+01-0.857892877539D-08
    0.285726187357D-11 0.100000000000D+01 0.190300000000D+04 0.000000000000D+00
    0.200000000000D+01 0.000000000000D+00 0.325962901115D-08 0.130000000000D+02
    0.223200000000D+06 0.400000000000D+01 0.000000000000D+00 0.000000000000D+00
31 16  6 28 16  0  0.0 0.261604785919D-03-0.193267624127D-11 0.000000000000D+00
    0.340000000000D+02 0.190625000000D+02 0.466912305915D-08-0.187980736136D+01
    0.903382897377D-06 0.814999488648D-02 0.447966158390D-05 0.515377081490D+04
    0.230400000000D+06-0.162050127983D-06 0.382685821452D+00-0.176951289177D-06
    0.971104981072D+00 0.303875000000D+03-0.395305476528D+00-0.830427447779D-08
    0.257153568621D-10 0.000000000000D+00 0.190300000000D+04 0.000000000000D+00
    0.200000000000D+01 0.000000000000D+00-0.135041773319D-07 0.340000000000D+02
    0.223800000000D+06 0.400000000000D+01 0.000000000000D+00 0.000000000000D+00
32 16  6 28 16  0  0.0-0.349674373865D-04-0.898126018001D-11 0.000000000000D+00
    0.170000000000D+02 0.715625000000D+02 0.443554190098D-08 0.142644150725D+01
    0.370293855667D-05 0.544028007425D-03 0.900030136108D-05 0.515362593269D+04
    0.230400000000D+06-0.465661287308D-07-0.703102572896D+00 0.558793544769D-08
    0.959478812681D+00 0.200218750000D+03-0.232322540910D+01-0.805819279893D-08
    0.215366113720D-09 0.000000000000D+00 0.190300000000D+04 0.000000000000D+00
    0.200000000000D+01 0.000000000000D+00 0.465661287308D-09 0.170000000000D+02
    0.223200000000D+06 0.400000000000D+01 0.000000000000D+00 0.000000000000D+00
